OBJECT_NAME,OBJECT_ID,EPOCH,MEAN_MOTION,ECCENTRICITY,INCLINATION,RA_OF_ASC_NODE,ARG_OF_PERICENTER,MEAN_ANOMALY,EPHEMERIS_TYPE,CLASSIFICATION_TYPE,NORAD_CAT_ID,ELEMENT_SET_NO,REV_AT_EPOCH,BSTAR,MEAN_MOTION_DOT,MEAN_MOTION_DDOT
SAUDISAT 5A,2018-102A,2026-06-08T04:38:01.647168,15.27955033,.0010357,97.3070,220.9478,157.2045,202.9657,0,U,43831,999,41430,.20592E-3,.5552E-4,0
SAUDISAT 5B,2018-102C,2026-06-08T05:07:21.540000,15.28218511,.0010976,97.3177,224.0212,159.8540,200.3136,0,U,43833,999,41442,.21787E-3,.5927E-4,0
GAOFEN-10R,2019-066A,2026-06-08T04:19:41.471904,14.83041929,.0006046,98.0498,112.6943,152.7129,207.4403,0,U,44622,999,36104,.17587E-3,.1376E-4,0
CARTOSAT-3,2019-081A,2026-06-08T04:47:44.715840,15.19218583,.0012253,97.4303,221.2113,178.3348,181.7930,0,U,44804,999,36210,.18321E-3,.3796E-4,0
GAOFEN-12 01,2019-082A,2026-06-08T03:47:39.156576,14.80451478,.0002478,97.8101,165.7759,81.0613,279.0880,0,U,44819,999,35275,.65567E-4,.451E-5,0
CSG-1,2019-092A,2026-06-08T03:21:31.722336,14.82157732,.0001455,97.8888,342.8737,90.5881,269.5499,0,U,44873,999,35013,.6976E-4,.503E-5,0
NEMO-HD,2020-061F,2026-06-08T04:32:09.389184,15.44414277,.000261,97.1922,221.2337,90.5952,269.5596,0,U,46277,999,32059,.25477E-3,.11694E-3,0
SENTINEL-6A,2020-086A,2026-06-08T02:33:43.305408,12.80929775,.0007935,66.0384,153.9125,270.3138,89.6968,0,U,46984,999,25916,.1165E-3,-.34E-6,0
CAS500-1,2021-022A,2026-06-08T04:14:29.974848,15.20232397,.0004174,97.3907,54.6119,338.2019,21.9038,0,U,47932,999,28939,.33849E-3,.7275E-4,0
GAOFEN-12 02,2021-026A,2026-06-08T05:39:31.510368,14.80289293,.0003328,97.9920,157.4531,261.7900,98.2935,0,U,48079,999,28043,.58778E-4,.395E-5,0
PLEIADES NEO 3,2021-034A,2026-06-08T04:53:28.074624,14.81667538,.0001423,97.8926,234.0996,84.9636,275.1739,0,U,48268,999,27632,.10096E-3,.742E-5,0
PLEIADES NEO 4,2021-073E,2026-06-08T04:04:51.353184,14.81665044,.0001375,97.8927,234.0618,85.4649,274.6721,0,U,49070,999,26003,.21394E-3,.1632E-4,0
LANDSAT 9,2021-088A,2026-06-08T03:10:10.961184,14.57104987,.0001451,98.2279,229.4187,88.3145,271.8219,0,U,49260,999,24968,.99219E-4,.402E-5,0
CSG-2,2022-008A,2026-06-08T04:10:06.472128,14.82148526,.000139,97.8888,342.9020,80.8041,279.3329,0,U,51444,999,23525,-.79907E-5,-.116E-5,0
GAOFEN-12 03,2022-069A,2026-06-08T04:42:54.418752,14.80023390,.0001698,97.8287,47.2929,110.4237,249.7158,0,U,52912,999,21328,.2164E-3,.1587E-4,0
SWOT,2022-173A,2026-06-08T03:04:12.110016,14.00168481,.0000192,77.6112,47.5399,94.7332,265.3842,0,U,54754,999,17788,.14346E-4,.19E-6,0
GAOFEN-12 04,2023-123A,2026-06-08T05:08:37.739616,14.80212369,.0001784,97.9129,77.3609,87.0875,273.0541,0,U,57654,999,15130,.15974E-3,.1163E-4,0
PARS 1,2024-039Q,2026-06-08T04:27:58.741920,15.45539565,.0010911,97.4821,139.8239,138.5148,221.6931,0,U,59065,999,12725,.24294E-3,.11601E-3,0
RESURS-P 4,2024-061A,2026-06-08T04:26:07.075968,15.32079673,.0001483,97.2746,107.2409,132.1809,227.9559,0,U,59371,999,12238,.10251E-3,.3099E-4,0
LEGION 1,2024-081A,2026-06-08T02:55:53.512896,15.16605374,.0010345,97.5014,237.0763,47.1811,313.0290,0,U,59625,999,11616,.21028E-3,.4046E-4,0
LEGION 2,2024-081B,2026-06-08T03:38:53.416032,15.16584320,.001164,97.5014,237.2037,15.7080,344.4512,0,U,59626,999,11617,.1954E-3,.3754E-4,0
ALOS-4 (DAICHI-4),2024-123A,2026-06-08T03:55:12.777312,14.79467029,.0001641,97.9243,256.4638,97.6570,262.4827,0,U,60182,999,10454,.21282E-3,.1538E-4,0
LEGION 3,2024-146A,2026-06-08T02:28:57.457920,15.15970057,.0006882,45.0009,79.2699,112.5787,247.5820,0,U,60452,999,10064,.2669E-3,.495E-4,0
LEGION 4,2024-146B,2026-06-08T02:33:19.790784,15.15968479,.0014071,45.0001,171.1647,261.1935,98.7350,0,U,60453,999,9949,.18344E-3,.3322E-4,0
SENTINEL-2C,2024-157A,2026-06-08T03:38:14.767584,14.30815442,.0001171,98.5692,234.0611,79.8136,280.3179,0,U,60989,999,9169,.58024E-4,.108E-5,0
IONOSFERA-M 1,2024-199A,2026-06-08T02:55:18.469056,14.22752724,.0001683,98.7185,32.3892,122.6421,237.4919,0,U,61735,999,12641,.4445E-4,.56E-6,0
IONOSFERA-M 2,2024-199B,2026-06-08T03:44:43.501920,14.22755870,.0001399,98.7184,32.3339,46.9677,313.1618,0,U,61736,999,12954,.44727E-4,.56E-6,0
PRSC-EO1,2025-012A,2026-06-08T05:23:53.489760,15.17657916,.000425,97.4223,231.8598,293.4897,66.5890,0,U,62725,999,7683,.39911E-3,.7973E-4,0
BIOMASS,2025-090A,2026-06-08T02:26:19.345056,14.67535409,.0001361,98.0744,346.5504,89.1797,270.9563,0,U,63772,999,5935,.15966E-3,.857E-5,0
GOSAT-GW (IBUKI GW),2025-141A,2026-06-08T04:33:52.699392,14.67551389,.0001434,98.0573,96.6538,83.1279,277.0089,0,U,64694,999,5052,.21681E-3,.1182E-4,0
IONOSFERA-M 3,2025-155A,2026-06-08T03:58:33.748896,14.21485015,.0000472,98.6027,121.2981,176.1552,183.9629,0,U,64876,999,4512,.51157E-4,.69E-6,0
