SAUDISAT 5A             
1 43831U 18102A   26159.19307462  .00005552  00000+0  20592-3 0  9993
2 43831  97.3070 220.9478 0010357 157.2045 202.9657 15.27955033414302
SAUDISAT 5B             
1 43833U 18102C   26159.21344375  .00005927  00000+0  21787-3 0  9995
2 43833  97.3177 224.0212 0010976 159.8540 200.3136 15.28218511414429
GAOFEN-10R              
1 44622U 19066A   26159.18034111  .00001376  00000+0  17587-3 0  9999
2 44622  98.0498 112.6943 0006046 152.7129 207.4403 14.83041929361042
CARTOSAT-3              
1 44804U 19081A   26159.19982310  .00003796  00000+0  18321-3 0  9997
2 44804  97.4303 221.2113 0012253 178.3348 181.7930 15.19218583362101
GAOFEN-12 01            
1 44819U 19082A   26159.15809209  .00000451  00000+0  65567-4 0  9995
2 44819  97.8101 165.7759 0002478  81.0613 279.0880 14.80451478352752
CSG-1                   
1 44873U 19092A   26159.13995049  .00000503  00000+0  69760-4 0  9999
2 44873  97.8888 342.8737 0001455  90.5881 269.5499 14.82157732350132
NEMO-HD                 
1 46277U 20061F   26159.18899756  .00011694  00000+0  25477-3 0  9999
2 46277  97.1922 221.2337 0002610  90.5952 269.5596 15.44414277320597
SENTINEL-6A             
1 46984U 20086A   26159.10675122 -.00000034  00000+0  11650-3 0  9997
2 46984  66.0384 153.9125 0007935 270.3138  89.6968 12.80929775259163
CAS500-1                
1 47932U 21022A   26159.17673582  .00007275  00000+0  33849-3 0  9994
2 47932  97.3907  54.6119 0004174 338.2019  21.9038 15.20232397289398
GAOFEN-12 02            
1 48079U 21026A   26159.23578137  .00000395  00000+0  58778-4 0  9993
2 48079  97.9920 157.4531 0003328 261.7900  98.2935 14.80289293280432
PLEIADES NEO 3          
1 48268U 21034A   26159.20379716  .00000742  00000+0  10096-3 0  9997
2 48268  97.8926 234.0996 0001423  84.9636 275.1739 14.81667538276323
PLEIADES NEO 4          
1 49070U 21073E   26159.17003881  .00001632  00000+0  21394-3 0  9997
2 49070  97.8927 234.0618 0001375  85.4649 274.6721 14.81665044260039
LANDSAT 9               
1 49260U 21088A   26159.13207131  .00000402  00000+0  99219-4 0  9990
2 49260  98.2279 229.4187 0001451  88.3145 271.8219 14.57104987249688
CSG-2                   
1 51444U 22008A   26159.17368602 -.00000116  00000+0 -79907-5 0  9992
2 51444  97.8888 342.9020 0001390  80.8041 279.3329 14.82148526235255
GAOFEN-12 03            
1 52912U 22069A   26159.19646318  .00001587  00000+0  21640-3 0  9995
2 52912  97.8287  47.2929 0001698 110.4237 249.7158 14.80023390213289
SWOT                    
1 54754U 22173A   26159.12791794  .00000019  00000+0  14346-4 0  9994
2 54754  77.6112  47.5399 0000192  94.7332 265.3842 14.00168481177882
GAOFEN-12 04            
1 57654U 23123A   26159.21432569  .00001163  00000+0  15974-3 0  9992
2 57654  97.9129  77.3609 0001784  87.0875 273.0541 14.80212369151301
PARS 1                  
1 59065U 24039Q   26159.18609655  .00011601  00000+0  24294-3 0  9998
2 59065  97.4821 139.8239 0010911 138.5148 221.6931 15.45539565127254
RESURS-P 4              
1 59371U 24061A   26159.18480412  .00003099  00000+0  10251-3 0  9991
2 59371  97.2746 107.2409 0001483 132.1809 227.9559 15.32079673122383
LEGION 1                
1 59625U 24081A   26159.12214714  .00004046  00000+0  21028-3 0  9996
2 59625  97.5014 237.0763 0010345  47.1811 313.0290 15.16605374116169
LEGION 2                
1 59626U 24081B   26159.15200713  .00003754  00000+0  19540-3 0  9995
2 59626  97.5014 237.2037 0011640  15.7080 344.4512 15.16584320116177
ALOS-4 (DAICHI-4)       
1 60182U 24123A   26159.16334233  .00001538  00000+0  21282-3 0  9991
2 60182  97.9243 256.4638 0001641  97.6570 262.4827 14.79467029104547
LEGION 3                
1 60452U 24146A   26159.10344280  .00004950  00000+0  26690-3 0  9992
2 60452  45.0009  79.2699 0006882 112.5787 247.5820 15.15970057100643
LEGION 4                
1 60453U 24146B   26159.10647906  .00003322  00000+0  18344-3 0  9993
2 60453  45.0001 171.1647 0014071 261.1935  98.7350 15.15968479 99495
SENTINEL-2C             
1 60989U 24157A   26159.15155981  .00000108  00000+0  58024-4 0  9990
2 60989  98.5692 234.0611 0001171  79.8136 280.3179 14.30815442 91691
IONOSFERA-M 1           
1 61735U 24199A   26159.12174154  .00000056  00000+0  44450-4 0  9996
2 61735  98.7185  32.3892 0001683 122.6421 237.4919 14.22752724126410
IONOSFERA-M 2           
1 61736U 24199B   26159.15605905  .00000056  00000+0  44727-4 0  9990
2 61736  98.7184  32.3339 0001399  46.9677 313.1618 14.22755870129541
PRSC-EO1                
1 62725U 25012A   26159.22492465  .00007973  00000+0  39911-3 0  9990
2 62725  97.4223 231.8598 0004250 293.4897  66.5890 15.17657916 76836
BIOMASS                 
1 63772U 25090A   26159.10161279  .00000857  00000+0  15966-3 0  9990
2 63772  98.0744 346.5504 0001361  89.1797 270.9563 14.67535409 59356
GOSAT-GW (IBUKI GW)     
1 64694U 25141A   26159.19019328  .00001182  00000+0  21681-3 0  9990
2 64694  98.0573  96.6538 0001434  83.1279 277.0089 14.67551389 50526
IONOSFERA-M 3           
1 64876U 25155A   26159.16566839  .00000069  00000+0  51157-4 0  9993
2 64876  98.6027 121.2981 0000472 176.1552 183.9629 14.21485015 45120
